STARLINK-2326           
1 47870U 21021L   26157.45650845  .00002908  00000+0  10540-3 0  9991
2 47870  53.1597 228.0684 0001156  71.3869 288.7258 15.31705585289565
STARLINK-2329           
1 47873U 21021P   26157.42709290  .00003696  00000+0  13079-3 0  9995
2 47873  53.1571 202.6482 0001866  55.9808 304.1371 15.31706076290010
STARLINK-2330           
1 47874U 21021Q   26157.70924339  .00044892  00000+0  12370-2 0  9995
2 47874  53.1426 161.4993 0004790  30.4740 329.6541 15.36707695290611
STARLINK-2336           
1 47879U 21021V   26157.49118095  .00068734  00000+0  11075-2 0  9992
2 47879  53.1531 217.9785 0004902 333.7241  26.3520 15.52323838289986
STARLINK-2342           
1 47883U 21021Z   26157.91670139  .01095168  00000+0  62954-2 0  9990
2 47883  53.1583 199.4215 0001618  74.2488 249.3998 15.75600605  5933
STARLINK-2343           
1 47884U 21021AA  26157.46117608  .00001187  00000+0  50014-4 0  9991
2 47884  53.1595 228.0852 0001643  91.6334 268.4856 15.31706597289651
STARLINK-2346           
1 47887U 21021AD  26157.47514918  .00004175  00000+0  14617-3 0  9998
2 47887  53.1561 227.9788 0000982  72.2442 287.8666 15.31712804289666
STARLINK-2354           
1 47894U 21021AL  26157.44062228  .00045000  00000+0  13800-2 0  9999
2 47894  53.1504 215.1296 0001064  49.7060 310.4035 15.33349924289788
STARLINK-2355           
1 47895U 21021AM  26157.46276333  .00000874  00000+0  39930-4 0  9990
2 47895  53.1570 215.2135 0001152  76.8319 283.2811 15.31702567289829
STARLINK-2356           
1 47896U 21021AN  26157.49844480  .00005070  00000+0  17492-3 0  9999
2 47896  53.1584 227.8519 0001383  51.5388 308.5737 15.31723215289621
STARLINK-2358           
1 47898U 21021AQ  26157.44878364  .00003513  00000+0  12490-3 0  9997
2 47898  53.1554 215.2092 0001063  85.2591 274.8531 15.31706587289790
STARLINK-2361           
1 47901U 21021AT  26157.39662261  .00050985  00000+0  13493-2 0  9991
2 47901  53.1554 201.0937 0005074 348.9163  11.1729 15.37899743290039
STARLINK-2363           
1 47903U 21021AV  26157.91670139  .01105122  00000+0  33848-2 0  9995
2 47903  53.1507 169.5940 0001366  84.6976 294.1319 15.88747381  6003
STARLINK-2364           
1 47904U 21021AW  26157.41774681  .00001611  00000+0  63641-4 0  9991
2 47904  53.1575 202.5277 0001065  94.3750 265.7373 15.31704625290005
STARLINK-2367           
1 47907U 21021AZ  26157.48448818 -.00000858  00000+0 -15889-4 0  9996
2 47907  53.1566 228.0714 0000986  76.0886 284.0225 15.31715263289621
STARLINK-2370           
1 47910U 21021BC  26157.43945507  .00000849  00000+0  39121-4 0  9995
2 47910  53.1574 215.2888 0001200  84.3727 275.7411 15.31709677289851
STARLINK-2371           
1 47911U 21021BD  26157.47981307  .00001907  00000+0  73185-4 0  9992
2 47911  53.1584 227.9657 0001151  86.6842 273.4291 15.31707972289515
STARLINK-2378           
1 47916U 21021BJ  26157.81394208 -.00002837  00000+0 -79717-4 0  9995
2 47916  53.1560 200.8422 0000740 334.1267  25.9697 15.31690844290060
STARLINK-2405           
1 47919U 21021BM  26157.51710475  .00010677  00000+0  35549-3 0  9996
2 47919  53.1552 227.7682 0000560 161.0081 199.0941 15.31684108289655
STARLINK-1647           
1 47978U 21024B   26157.64655435  .00000543  00000+0  29249-4 0  9994
2 47978  53.1602 278.5883 0001224  62.0763 298.0362 15.31707168288252
STARLINK-2303           
1 47981U 21024E   26157.57631611  .00001951  00000+0  74601-4 0  9996
2 47981  53.1587 278.9787 0001030  77.8470 282.2647 15.31702371288240
STARLINK-2273           
1 47993U 21024S   26157.51673092  .00081057  00000+0  15069-2 0  9998
2 47993  53.1500 236.4702 0004881 332.2062  27.8685 15.48205674288827
STARLINK-2266           
1 47997U 21024W   26157.58849400  .00002547  00000+0  93790-4 0  9993
2 47997  53.1607 253.2447 0001770  43.4928 316.6213 15.31709581288608
STARLINK-2270           
1 48000U 21024Z   26157.77547495  .00074566  00000+0  17324-2 0  9996
2 48000  53.1241 184.3703 0008286  26.1583 333.9840 15.41674237289521
STARLINK-2153           
1 48009U 21024AJ  26157.57553376  .00002568  00000+0  94469-4 0  9998
2 48009  53.1571 255.9399 0000997  93.8493 266.2622 15.31707382288515
STARLINK-2226           
1 48010U 21024AK  26157.65125011 -.00000341  00000+0  78240-6 0  9999
2 48010  53.1599 278.8496 0001156  83.1496 276.9637 15.31706755288193
STARLINK-2285           
1 48019U 21024AU  26157.91670139 -.00024582  00000+0 -78193-3 0  9991
2 48019  53.1589 251.8155 0001241  84.2026 209.4908 15.31742002  5813
STARLINK-2298           
1 48022U 21024AX  26157.57440039  .00057572  00000+0  98705-3 0  9995
2 48022  53.1221 271.0227 0004050 309.4314  50.6337 15.50662707288344
STARLINK-2292           
1 48023U 21024AY  26157.59820874  .00052698  00000+0  11900-2 0  9992
2 48023  53.1188 274.5211 0003964 304.5333  55.5298 15.42705701288295
STARLINK-2299           
1 48029U 21024BE  26157.91670139  .00247152  00000+0  33831-2 0  9999
2 48029  53.1155 268.6388 0001128  38.8138  84.2200 15.56052293  5828
