OBJECT_NAME,OBJECT_ID,EPOCH,MEAN_MOTION,ECCENTRICITY,INCLINATION,RA_OF_ASC_NODE,ARG_OF_PERICENTER,MEAN_ANOMALY,EPHEMERIS_TYPE,CLASSIFICATION_TYPE,NORAD_CAT_ID,ELEMENT_SET_NO,REV_AT_EPOCH,BSTAR,MEAN_MOTION_DOT,MEAN_MOTION_DDOT
STARLINK-2326,2021-021L,2026-06-06T10:57:22.330080,15.31705585,.00011561,53.1597,228.0684,71.3869,288.7258,0,U,47870,999,28956,.10540158E-3,.2908E-4,0
STARLINK-2329,2021-021P,2026-06-06T10:15:00.826560,15.31706076,.00018668,53.1571,202.6482,55.9808,304.1371,0,U,47873,999,29001,.13079182E-3,.3696E-4,0
STARLINK-2330,2021-021Q,2026-06-06T17:01:18.628896,15.36707695,.00047908,53.1426,161.4993,30.4740,329.6541,0,U,47874,999,29061,.12369506E-2,.44892E-3,0
STARLINK-2336,2021-021V,2026-06-06T11:47:18.034080,15.52323838,.0004902,53.1531,217.9785,333.7241,26.3520,0,U,47879,999,28998,.11075E-2,.68734E-3,0
STARLINK-2342,2021-021Z,2026-06-06T22:00:03.000096,15.75600605,.00016184,53.1583,199.4215,74.2488,249.3998,0,U,47883,999,593,.6295357E-2,.1095168E-1,0
STARLINK-2343,2021-021AA,2026-06-06T11:04:05.613312,15.31706597,.00016439,53.1595,228.0852,91.6334,268.4856,0,U,47884,999,28965,.50014117E-4,.1187E-4,0
STARLINK-2346,2021-021AD,2026-06-06T11:24:12.889152,15.31712804,.0000982,53.1561,227.9788,72.2442,287.8666,0,U,47887,999,28966,.14617141E-3,.4175E-4,0
STARLINK-2354,2021-021AL,2026-06-06T10:34:29.764992,15.33349924,.00010646,53.1504,215.1296,49.7060,310.4035,0,U,47894,999,28978,.13800045E-2,.45E-3,0
STARLINK-2355,2021-021AM,2026-06-06T11:06:22.751712,15.31702567,.00011524,53.1570,215.2135,76.8319,283.2811,0,U,47895,999,28982,.39929664E-4,.874E-5,0
STARLINK-2356,2021-021AN,2026-06-06T11:57:45.630720,15.31723215,.00013831,53.1584,227.8519,51.5388,308.5737,0,U,47896,999,28962,.17491639E-3,.507E-4,0
STARLINK-2358,2021-021AQ,2026-06-06T10:46:14.906496,15.31706587,.00010639,53.1554,215.2092,85.2591,274.8531,0,U,47898,999,28979,.12490053E-3,.3513E-4,0
STARLINK-2361,2021-021AT,2026-06-06T09:31:08.193504,15.37899743,.00050747,53.1554,201.0937,348.9163,11.1729,0,U,47901,999,29003,.13492727E-2,.50985E-3,0
STARLINK-2363,2021-021AV,2026-06-06T22:00:03.000096,15.88747381,.00013665,53.1507,169.5940,84.6976,294.1319,0,U,47903,999,600,.33847609E-2,.1105122E-1,0
STARLINK-2364,2021-021AW,2026-06-06T10:01:33.324384,15.31704625,.00010656,53.1575,202.5277,94.3750,265.7373,0,U,47904,999,29000,.63640792E-4,.1611E-4,0
STARLINK-2367,2021-021AZ,2026-06-06T11:37:39.778752,15.31715263,.00009861,53.1566,228.0714,76.0886,284.0225,0,U,47907,999,28962,-.15889028E-4,-.858E-5,0
STARLINK-2370,2021-021BC,2026-06-06T10:32:48.918048,15.31709677,.00012005,53.1574,215.2888,84.3727,275.7411,0,U,47910,999,28985,.39121352E-4,.849E-5,0
STARLINK-2371,2021-021BD,2026-06-06T11:30:55.849248,15.31707972,.00011517,53.1584,227.9657,86.6842,273.4291,0,U,47911,999,28951,.73185292E-4,.1907E-4,0
STARLINK-2378,2021-021BJ,2026-06-06T19:32:04.595712,15.31690844,.00007402,53.1560,200.8422,334.1267,25.9697,0,U,47916,999,29006,-.79717403E-4,-.2837E-4,0
STARLINK-2405,2021-021BM,2026-06-06T12:24:37.850400,15.31684108,.000056,53.1552,227.7682,161.0081,199.0941,0,U,47919,999,28965,.35549E-3,.10677E-3,0
STARLINK-1647,2021-024B,2026-06-06T15:31:02.295840,15.31707168,.00012245,53.1602,278.5883,62.0763,298.0362,0,U,47978,999,28825,.2924895E-4,.543E-5,0
STARLINK-2303,2021-024E,2026-06-06T13:49:53.711904,15.31702371,.00010309,53.1587,278.9787,77.8470,282.2647,0,U,47981,999,28824,.7460085E-4,.1951E-4,0
STARLINK-2273,2021-024S,2026-06-06T12:24:05.551488,15.48205674,.00048814,53.1500,236.4702,332.2062,27.8685,0,U,47993,999,28882,.15069208E-2,.81057E-3,0
STARLINK-2266,2021-024W,2026-06-06T14:07:25.881600,15.31709581,.00017701,53.1607,253.2447,43.4928,316.6213,0,U,47997,999,28860,.93790299E-4,.2547E-4,0
STARLINK-2270,2021-024Z,2026-06-06T18:36:41.035680,15.41674237,.00082864,53.1241,184.3703,26.1583,333.9840,0,U,48000,999,28952,.1732388E-2,.74566E-3,0
STARLINK-2153,2021-024AJ,2026-06-06T13:48:46.116864,15.31707382,.0000997,53.1571,255.9399,93.8493,266.2622,0,U,48009,999,28851,.94469E-4,.2568E-4,0
STARLINK-2226,2021-024AK,2026-06-06T15:37:48.009504,15.31706755,.00011565,53.1599,278.8496,83.1496,276.9637,0,U,48010,999,28819,.782404E-6,-.341E-5,0
STARLINK-2285,2021-024AU,2026-06-06T22:00:03.000096,15.31742002,.0001241,53.1589,251.8155,84.2026,209.4908,0,U,48019,999,581,-.78192718E-3,-.24582E-3,0
STARLINK-2298,2021-024AX,2026-06-06T13:47:08.193696,15.50662707,.000405,53.1221,271.0227,309.4314,50.6337,0,U,48022,999,28834,.98705E-3,.57572E-3,0
STARLINK-2292,2021-024AY,2026-06-06T14:21:25.235136,15.42705701,.0003964,53.1188,274.5211,304.5333,55.5298,0,U,48023,999,28829,.119E-2,.52698E-3,0
STARLINK-2299,2021-024BE,2026-06-06T22:00:03.000096,15.56052293,.00011288,53.1155,268.6388,38.8138,84.2200,0,U,48029,999,582,.33831276E-2,.247152E-2,0
